{
"type": "FeatureCollection",
"crs": { "type": "name", "properties": { "name": "urn:ogc:def:crs:OGC:1.3:CRS84" } },
"features": [
{ "type": "Feature", "properties": { "osm_id": null, "code": null, "fclass": null, "name": null, "ref": null, "oneway": null, "maxspeed": null, "layer": null, "bridge": null, "tunnel": null, "from_node": 62, "to_node": 5454, "link_id": "grade_transition_connector__58", "road_class": "topology_connector", "road_name": "grade_transition_connector", "speed_limit": null, "lane_num": null, "oneway_code": "B", "oneway_direction": "both", "length_m": 0.0, "signal": null, "source_link_id": "grade_transition_connector", "segment_index": 58, "topology_layer": "transition", "topology_bridge": false, "topology_tunnel": false, "topology_version": "xian_2017_core_noded_v4", "topology_connector": true, "candidate_eligible": false, "connector_semantics": "('0', False, False)->('-1', False, True)|primary->primary", "order_count": 39, "occurrence_count": 39 }, "geometry": { "type": "LineString", "coordinates": [ [ 108.9261996, 34.2524125 ], [ 108.9261996, 34.2524125 ] ] } },
{ "type": "Feature", "properties": { "osm_id": null, "code": null, "fclass": null, "name": null, "ref": null, "oneway": null, "maxspeed": null, "layer": null, "bridge": null, "tunnel": null, "from_node": 63, "to_node": 5381, "link_id": "grade_transition_connector__59", "road_class": "topology_connector", "road_name": "grade_transition_connector", "speed_limit": null, "lane_num": null, "oneway_code": "B", "oneway_direction": "both", "length_m": 0.0, "signal": null, "source_link_id": "grade_transition_connector", "segment_index": 59, "topology_layer": "transition", "topology_bridge": false, "topology_tunnel": false, "topology_version": "xian_2017_core_noded_v4", "topology_connector": true, "candidate_eligible": false, "connector_semantics": "('-1', False, True)->('0', False, False)|primary->primary", "order_count": 39, "occurrence_count": 40 }, "geometry": { "type": "LineString", "coordinates": [ [ 108.9346056, 34.2524237 ], [ 108.9346056, 34.2524237 ] ] } },
{ "type": "Feature", "properties": { "osm_id": null, "code": null, "fclass": null, "name": null, "ref": null, "oneway": null, "maxspeed": null, "layer": null, "bridge": null, "tunnel": null, "from_node": 106, "to_node": 8611, "link_id": "grade_transition_connector__100", "road_class": "topology_connector", "road_name": "grade_transition_connector", "speed_limit": null, "lane_num": null, "oneway_code": "B", "oneway_direction": "both", "length_m": 0.0, "signal": null, "source_link_id": "grade_transition_connector", "segment_index": 100, "topology_layer": "transition", "topology_bridge": false, "topology_tunnel": false, "topology_version": "xian_2017_core_noded_v4", "topology_connector": true, "candidate_eligible": false, "connector_semantics": "('-1', False, True)->('0', False, False)|primary->primary", "order_count": 14, "occurrence_count": 14 }, "geometry": { "type": "LineString", "coordinates": [ [ 108.9556723, 34.2782694 ], [ 108.9556723, 34.2782694 ] ] } },
{ "type": "Feature", "properties": { "osm_id": null, "code": null, "fclass": null, "name": null, "ref": null, "oneway": null, "maxspeed": null, "layer": null, "bridge": null, "tunnel": null, "from_node": 4676, "to_node": 21851, "link_id": "grade_transition_connector__465", "road_class": "topology_connector", "road_name": "grade_transition_connector", "speed_limit": null, "lane_num": null, "oneway_code": "F", "oneway_direction": "forward", "length_m": 0.0, "signal": null, "source_link_id": "grade_transition_connector", "segment_index": 465, "topology_layer": "transition", "topology_bridge": false, "topology_tunnel": false, "topology_version": "xian_2017_core_noded_v4", "topology_connector": true, "candidate_eligible": false, "connector_semantics": "('0', False, False)->('1', True, False)|primary->primary", "order_count": 43, "occurrence_count": 83 }, "geometry": { "type": "LineString", "coordinates": [ [ 108.9172041, 34.2335569 ], [ 108.9172041, 34.2335569 ] ] } },
{ "type": "Feature", "properties": { "osm_id": null, "code": null, "fclass": null, "name": null, "ref": null, "oneway": null, "maxspeed": null, "layer": null, "bridge": null, "tunnel": null, "from_node": 4677, "to_node": 21857, "link_id": "grade_transition_connector__466", "road_class": "topology_connector", "road_name": "grade_transition_connector", "speed_limit": null, "lane_num": null, "oneway_code": "T", "oneway_direction": "reverse", "length_m": 0.0, "signal": null, "source_link_id": "grade_transition_connector", "segment_index": 466, "topology_layer": "transition", "topology_bridge": false, "topology_tunnel": false, "topology_version": "xian_2017_core_noded_v4", "topology_connector": true, "candidate_eligible": false, "connector_semantics": "('0', False, False)->('1', True, False)|primary->primary", "order_count": 55, "occurrence_count": 72 }, "geometry": { "type": "LineString", "coordinates": [ [ 108.9170836, 34.2335925 ], [ 108.9170836, 34.2335925 ] ] } },
{ "type": "Feature", "properties": { "osm_id": null, "code": null, "fclass": null, "name": null, "ref": null, "oneway": null, "maxspeed": null, "layer": null, "bridge": null, "tunnel": null, "from_node": 4911, "to_node": 21578, "link_id": "grade_transition_connector__470", "road_class": "topology_connector", "road_name": "grade_transition_connector", "speed_limit": null, "lane_num": null, "oneway_code": "T", "oneway_direction": "reverse", "length_m": 0.0, "signal": null, "source_link_id": "grade_transition_connector", "segment_index": 470, "topology_layer": "transition", "topology_bridge": false, "topology_tunnel": false, "topology_version": "xian_2017_core_noded_v4", "topology_connector": true, "candidate_eligible": false, "connector_semantics": "('0', False, False)->('1', False, False)|trunk->trunk", "order_count": 41, "occurrence_count": 41 }, "geometry": { "type": "LineString", "coordinates": [ [ 108.9222741, 34.2330228 ], [ 108.9222741, 34.2330228 ] ] } },
{ "type": "Feature", "properties": { "osm_id": null, "code": null, "fclass": null, "name": null, "ref": null, "oneway": null, "maxspeed": null, "layer": null, "bridge": null, "tunnel": null, "from_node": 7187, "to_node": 22055, "link_id": "grade_transition_connector__645", "road_class": "topology_connector", "road_name": "grade_transition_connector", "speed_limit": null, "lane_num": null, "oneway_code": "T", "oneway_direction": "reverse", "length_m": 0.0, "signal": null, "source_link_id": "grade_transition_connector", "segment_index": 645, "topology_layer": "transition", "topology_bridge": false, "topology_tunnel": false, "topology_version": "xian_2017_core_noded_v4", "topology_connector": true, "candidate_eligible": false, "connector_semantics": "('0', False, False)->('1', True, False)|primary->primary", "order_count": 41, "occurrence_count": 42 }, "geometry": { "type": "LineString", "coordinates": [ [ 108.94158, 34.251942199999988 ], [ 108.94158, 34.251942199999988 ] ] } },
{ "type": "Feature", "properties": { "osm_id": null, "code": null, "fclass": null, "name": null, "ref": null, "oneway": null, "maxspeed": null, "layer": null, "bridge": null, "tunnel": null, "from_node": 7191, "to_node": 21121, "link_id": "grade_transition_connector__648", "road_class": "topology_connector", "road_name": "grade_transition_connector", "speed_limit": null, "lane_num": null, "oneway_code": "T", "oneway_direction": "reverse", "length_m": 0.0, "signal": null, "source_link_id": "grade_transition_connector", "segment_index": 648, "topology_layer": "transition", "topology_bridge": false, "topology_tunnel": false, "topology_version": "xian_2017_core_noded_v4", "topology_connector": true, "candidate_eligible": false, "connector_semantics": "('0', False, False)->('0', False, True)|primary->primary", "order_count": 41, "occurrence_count": 42 }, "geometry": { "type": "LineString", "coordinates": [ [ 108.9415963, 34.253362 ], [ 108.9415963, 34.253362 ] ] } },
{ "type": "Feature", "properties": { "osm_id": null, "code": null, "fclass": null, "name": null, "ref": null, "oneway": null, "maxspeed": null, "layer": null, "bridge": null, "tunnel": null, "from_node": 7192, "to_node": 22054, "link_id": "grade_transition_connector__649", "road_class": "topology_connector", "road_name": "grade_transition_connector", "speed_limit": null, "lane_num": null, "oneway_code": "F", "oneway_direction": "forward", "length_m": 0.0, "signal": null, "source_link_id": "grade_transition_connector", "segment_index": 649, "topology_layer": "transition", "topology_bridge": false, "topology_tunnel": false, "topology_version": "xian_2017_core_noded_v4", "topology_connector": true, "candidate_eligible": false, "connector_semantics": "('1', True, False)->('0', False, False)|primary->primary", "order_count": 41, "occurrence_count": 42 }, "geometry": { "type": "LineString", "coordinates": [ [ 108.9415867, 34.2522914 ], [ 108.9415867, 34.2522914 ] ] } },
{ "type": "Feature", "properties": { "osm_id": null, "code": null, "fclass": null, "name": null, "ref": null, "oneway": null, "maxspeed": null, "layer": null, "bridge": null, "tunnel": null, "from_node": 7227, "to_node": 21120, "link_id": "grade_transition_connector__659", "road_class": "topology_connector", "road_name": "grade_transition_connector", "speed_limit": null, "lane_num": null, "oneway_code": "F", "oneway_direction": "forward", "length_m": 0.0, "signal": null, "source_link_id": "grade_transition_connector", "segment_index": 659, "topology_layer": "transition", "topology_bridge": false, "topology_tunnel": false, "topology_version": "xian_2017_core_noded_v4", "topology_connector": true, "candidate_eligible": false, "connector_semantics": "('0', False, True)->('0', False, False)|primary->primary", "order_count": 41, "occurrence_count": 42 }, "geometry": { "type": "LineString", "coordinates": [ [ 108.9415948, 34.2534872 ], [ 108.9415948, 34.2534872 ] ] } },
{ "type": "Feature", "properties": { "osm_id": null, "code": null, "fclass": null, "name": null, "ref": null, "oneway": null, "maxspeed": null, "layer": null, "bridge": null, "tunnel": null, "from_node": 7800, "to_node": 21135, "link_id": "grade_transition_connector__678", "road_class": "topology_connector", "road_name": "grade_transition_connector", "speed_limit": null, "lane_num": null, "oneway_code": "T", "oneway_direction": "reverse", "length_m": 0.0, "signal": null, "source_link_id": "grade_transition_connector", "segment_index": 678, "topology_layer": "transition", "topology_bridge": false, "topology_tunnel": false, "topology_version": "xian_2017_core_noded_v4", "topology_connector": true, "candidate_eligible": false, "connector_semantics": "('0', False, True)->('0', False, False)|primary_link->secondary", "order_count": 38, "occurrence_count": 39 }, "geometry": { "type": "LineString", "coordinates": [ [ 108.9208519, 34.2603428 ], [ 108.9208519, 34.2603428 ] ] } },
{ "type": "Feature", "properties": { "osm_id": null, "code": null, "fclass": null, "name": null, "ref": null, "oneway": null, "maxspeed": null, "layer": null, "bridge": null, "tunnel": null, "from_node": 7803, "to_node": 21134, "link_id": "grade_transition_connector__679", "road_class": "topology_connector", "road_name": "grade_transition_connector", "speed_limit": null, "lane_num": null, "oneway_code": "F", "oneway_direction": "forward", "length_m": 0.0, "signal": null, "source_link_id": "grade_transition_connector", "segment_index": 679, "topology_layer": "transition", "topology_bridge": false, "topology_tunnel": false, "topology_version": "xian_2017_core_noded_v4", "topology_connector": true, "candidate_eligible": false, "connector_semantics": "('0', False, True)->('0', False, False)|primary_link->secondary", "order_count": 38, "occurrence_count": 39 }, "geometry": { "type": "LineString", "coordinates": [ [ 108.9206806, 34.2603317 ], [ 108.9206806, 34.2603317 ] ] } },
{ "type": "Feature", "properties": { "osm_id": null, "code": null, "fclass": null, "name": null, "ref": null, "oneway": null, "maxspeed": null, "layer": null, "bridge": null, "tunnel": null, "from_node": 7840, "to_node": 21137, "link_id": "grade_transition_connector__680", "road_class": "topology_connector", "road_name": "grade_transition_connector", "speed_limit": null, "lane_num": null, "oneway_code": "T", "oneway_direction": "reverse", "length_m": 0.0, "signal": null, "source_link_id": "grade_transition_connector", "segment_index": 680, "topology_layer": "transition", "topology_bridge": false, "topology_tunnel": false, "topology_version": "xian_2017_core_noded_v4", "topology_connector": true, "candidate_eligible": false, "connector_semantics": "('0', False, False)->('0', False, True)|secondary->primary_link", "order_count": 40, "occurrence_count": 42 }, "geometry": { "type": "LineString", "coordinates": [ [ 108.920653, 34.261654 ], [ 108.920653, 34.261654 ] ] } },
{ "type": "Feature", "properties": { "osm_id": null, "code": null, "fclass": null, "name": null, "ref": null, "oneway": null, "maxspeed": null, "layer": null, "bridge": null, "tunnel": null, "from_node": 7842, "to_node": 21136, "link_id": "grade_transition_connector__681", "road_class": "topology_connector", "road_name": "grade_transition_connector", "speed_limit": null, "lane_num": null, "oneway_code": "F", "oneway_direction": "forward", "length_m": 0.0, "signal": null, "source_link_id": "grade_transition_connector", "segment_index": 681, "topology_layer": "transition", "topology_bridge": false, "topology_tunnel": false, "topology_version": "xian_2017_core_noded_v4", "topology_connector": true, "candidate_eligible": false, "connector_semantics": "('0', False, False)->('0', False, True)|secondary->primary_link", "order_count": 40, "occurrence_count": 42 }, "geometry": { "type": "LineString", "coordinates": [ [ 108.9208356, 34.261654 ], [ 108.9208356, 34.261654 ] ] } },
{ "type": "Feature", "properties": { "osm_id": null, "code": null, "fclass": null, "name": null, "ref": null, "oneway": null, "maxspeed": null, "layer": null, "bridge": null, "tunnel": null, "from_node": 14704, "to_node": 22647, "link_id": "grade_transition_connector__1388", "road_class": "topology_connector", "road_name": "grade_transition_connector", "speed_limit": null, "lane_num": null, "oneway_code": "T", "oneway_direction": "reverse", "length_m": 0.0, "signal": null, "source_link_id": "grade_transition_connector", "segment_index": 1388, "topology_layer": "transition", "topology_bridge": false, "topology_tunnel": false, "topology_version": "xian_2017_core_noded_v4", "topology_connector": true, "candidate_eligible": false, "connector_semantics": "('0', False, False)->('1', True, False)|secondary->secondary", "order_count": 6, "occurrence_count": 6 }, "geometry": { "type": "LineString", "coordinates": [ [ 108.9827296, 34.21789 ], [ 108.9827296, 34.21789 ] ] } },
{ "type": "Feature", "properties": { "osm_id": null, "code": null, "fclass": null, "name": null, "ref": null, "oneway": null, "maxspeed": null, "layer": null, "bridge": null, "tunnel": null, "from_node": 14709, "to_node": 22649, "link_id": "grade_transition_connector__1389", "road_class": "topology_connector", "road_name": "grade_transition_connector", "speed_limit": null, "lane_num": null, "oneway_code": "T", "oneway_direction": "reverse", "length_m": 0.0, "signal": null, "source_link_id": "grade_transition_connector", "segment_index": 1389, "topology_layer": "transition", "topology_bridge": false, "topology_tunnel": false, "topology_version": "xian_2017_core_noded_v4", "topology_connector": true, "candidate_eligible": false, "connector_semantics": "('0', False, False)->('1', True, False)|primary->primary", "order_count": 1, "occurrence_count": 1 }, "geometry": { "type": "LineString", "coordinates": [ [ 108.9828222, 34.2180643 ], [ 108.9828222, 34.2180643 ] ] } },
{ "type": "Feature", "properties": { "osm_id": null, "code": null, "fclass": null, "name": null, "ref": null, "oneway": null, "maxspeed": null, "layer": null, "bridge": null, "tunnel": null, "from_node": 14751, "to_node": 22650, "link_id": "grade_transition_connector__1393", "road_class": "topology_connector", "road_name": "grade_transition_connector", "speed_limit": null, "lane_num": null, "oneway_code": "F", "oneway_direction": "forward", "length_m": 0.0, "signal": null, "source_link_id": "grade_transition_connector", "segment_index": 1393, "topology_layer": "transition", "topology_bridge": false, "topology_tunnel": false, "topology_version": "xian_2017_core_noded_v4", "topology_connector": true, "candidate_eligible": false, "connector_semantics": "('0', False, False)->('1', True, False)|primary->primary", "order_count": 5, "occurrence_count": 5 }, "geometry": { "type": "LineString", "coordinates": [ [ 108.9828654, 34.2181458 ], [ 108.9828654, 34.2181458 ] ] } },
{ "type": "Feature", "properties": { "osm_id": null, "code": null, "fclass": null, "name": null, "ref": null, "oneway": null, "maxspeed": null, "layer": null, "bridge": null, "tunnel": null, "from_node": 14757, "to_node": 22652, "link_id": "grade_transition_connector__1394", "road_class": "topology_connector", "road_name": "grade_transition_connector", "speed_limit": null, "lane_num": null, "oneway_code": "F", "oneway_direction": "forward", "length_m": 0.0, "signal": null, "source_link_id": "grade_transition_connector", "segment_index": 1394, "topology_layer": "transition", "topology_bridge": false, "topology_tunnel": false, "topology_version": "xian_2017_core_noded_v4", "topology_connector": true, "candidate_eligible": false, "connector_semantics": "('0', False, False)->('1', True, False)|secondary->secondary", "order_count": 9, "occurrence_count": 9 }, "geometry": { "type": "LineString", "coordinates": [ [ 108.9830085, 34.2182271 ], [ 108.9830085, 34.2182271 ] ] } },
{ "type": "Feature", "properties": { "osm_id": null, "code": null, "fclass": null, "name": null, "ref": null, "oneway": null, "maxspeed": null, "layer": null, "bridge": null, "tunnel": null, "from_node": 15123, "to_node": 22646, "link_id": "grade_transition_connector__1423", "road_class": "topology_connector", "road_name": "grade_transition_connector", "speed_limit": null, "lane_num": null, "oneway_code": "F", "oneway_direction": "forward", "length_m": 0.0, "signal": null, "source_link_id": "grade_transition_connector", "segment_index": 1423, "topology_layer": "transition", "topology_bridge": false, "topology_tunnel": false, "topology_version": "xian_2017_core_noded_v4", "topology_connector": true, "candidate_eligible": false, "connector_semantics": "('1', True, False)->('0', False, False)|secondary->secondary", "order_count": 6, "occurrence_count": 6 }, "geometry": { "type": "LineString", "coordinates": [ [ 108.9819356, 34.218324699999989 ], [ 108.9819356, 34.218324699999989 ] ] } },
{ "type": "Feature", "properties": { "osm_id": null, "code": null, "fclass": null, "name": null, "ref": null, "oneway": null, "maxspeed": null, "layer": null, "bridge": null, "tunnel": null, "from_node": 15124, "to_node": 22653, "link_id": "grade_transition_connector__1424", "road_class": "topology_connector", "road_name": "grade_transition_connector", "speed_limit": null, "lane_num": null, "oneway_code": "T", "oneway_direction": "reverse", "length_m": 0.0, "signal": null, "source_link_id": "grade_transition_connector", "segment_index": 1424, "topology_layer": "transition", "topology_bridge": false, "topology_tunnel": false, "topology_version": "xian_2017_core_noded_v4", "topology_connector": true, "candidate_eligible": false, "connector_semantics": "('1', True, False)->('0', False, False)|secondary->secondary", "order_count": 9, "occurrence_count": 9 }, "geometry": { "type": "LineString", "coordinates": [ [ 108.982075, 34.2187237 ], [ 108.982075, 34.2187237 ] ] } },
{ "type": "Feature", "properties": { "osm_id": null, "code": null, "fclass": null, "name": null, "ref": null, "oneway": null, "maxspeed": null, "layer": null, "bridge": null, "tunnel": null, "from_node": 15130, "to_node": 22648, "link_id": "grade_transition_connector__1425", "road_class": "topology_connector", "road_name": "grade_transition_connector", "speed_limit": null, "lane_num": null, "oneway_code": "F", "oneway_direction": "forward", "length_m": 0.0, "signal": null, "source_link_id": "grade_transition_connector", "segment_index": 1425, "topology_layer": "transition", "topology_bridge": false, "topology_tunnel": false, "topology_version": "xian_2017_core_noded_v4", "topology_connector": true, "candidate_eligible": false, "connector_semantics": "('1', True, False)->('0', False, False)|primary->primary", "order_count": 1, "occurrence_count": 1 }, "geometry": { "type": "LineString", "coordinates": [ [ 108.9818867, 34.2185787 ], [ 108.9818867, 34.2185787 ] ] } },
{ "type": "Feature", "properties": { "osm_id": null, "code": null, "fclass": null, "name": null, "ref": null, "oneway": null, "maxspeed": null, "layer": null, "bridge": null, "tunnel": null, "from_node": 15131, "to_node": 22651, "link_id": "grade_transition_connector__1426", "road_class": "topology_connector", "road_name": "grade_transition_connector", "speed_limit": null, "lane_num": null, "oneway_code": "T", "oneway_direction": "reverse", "length_m": 0.0, "signal": null, "source_link_id": "grade_transition_connector", "segment_index": 1426, "topology_layer": "transition", "topology_bridge": false, "topology_tunnel": false, "topology_version": "xian_2017_core_noded_v4", "topology_connector": true, "candidate_eligible": false, "connector_semantics": "('1', True, False)->('0', False, False)|primary->primary", "order_count": 5, "occurrence_count": 5 }, "geometry": { "type": "LineString", "coordinates": [ [ 108.9819503, 34.2186375 ], [ 108.9819503, 34.2186375 ] ] } },
{ "type": "Feature", "properties": { "osm_id": null, "code": null, "fclass": null, "name": null, "ref": null, "oneway": null, "maxspeed": null, "layer": null, "bridge": null, "tunnel": null, "from_node": 15172, "to_node": 22698, "link_id": "grade_transition_connector__1427", "road_class": "topology_connector", "road_name": "grade_transition_connector", "speed_limit": null, "lane_num": null, "oneway_code": "B", "oneway_direction": "both", "length_m": 0.0, "signal": null, "source_link_id": "grade_transition_connector", "segment_index": 1427, "topology_layer": "transition", "topology_bridge": false, "topology_tunnel": false, "topology_version": "xian_2017_core_noded_v4", "topology_connector": true, "candidate_eligible": false, "connector_semantics": "('0', False, False)->('1', True, False)|primary->primary", "order_count": 35, "occurrence_count": 44 }, "geometry": { "type": "LineString", "coordinates": [ [ 108.9694093, 34.2334539 ], [ 108.9694093, 34.2334539 ] ] } },
{ "type": "Feature", "properties": { "osm_id": null, "code": null, "fclass": null, "name": null, "ref": null, "oneway": null, "maxspeed": null, "layer": null, "bridge": null, "tunnel": null, "from_node": 15178, "to_node": 21631, "link_id": "grade_transition_connector__1428", "road_class": "topology_connector", "road_name": "grade_transition_connector", "speed_limit": null, "lane_num": null, "oneway_code": "F", "oneway_direction": "forward", "length_m": 0.0, "signal": null, "source_link_id": "grade_transition_connector", "segment_index": 1428, "topology_layer": "transition", "topology_bridge": false, "topology_tunnel": false, "topology_version": "xian_2017_core_noded_v4", "topology_connector": true, "candidate_eligible": false, "connector_semantics": "('0', False, False)->('1', False, False)|service->service", "order_count": 7, "occurrence_count": 7 }, "geometry": { "type": "LineString", "coordinates": [ [ 108.9688103, 34.2342428 ], [ 108.9688103, 34.2342428 ] ] } },
{ "type": "Feature", "properties": { "osm_id": null, "code": null, "fclass": null, "name": null, "ref": null, "oneway": null, "maxspeed": null, "layer": null, "bridge": null, "tunnel": null, "from_node": 15193, "to_node": 22693, "link_id": "grade_transition_connector__1429", "road_class": "topology_connector", "road_name": "grade_transition_connector", "speed_limit": null, "lane_num": null, "oneway_code": "F", "oneway_direction": "forward", "length_m": 0.0, "signal": null, "source_link_id": "grade_transition_connector", "segment_index": 1429, "topology_layer": "transition", "topology_bridge": false, "topology_tunnel": false, "topology_version": "xian_2017_core_noded_v4", "topology_connector": true, "candidate_eligible": false, "connector_semantics": "('0', False, False)->('1', True, False)|trunk->trunk||('0', False, False)->('1', True, False)|trunk->trunk_link", "order_count": 34, "occurrence_count": 34 }, "geometry": { "type": "LineString", "coordinates": [ [ 108.9662433, 34.2338428 ], [ 108.9662433, 34.2338428 ] ] } },
{ "type": "Feature", "properties": { "osm_id": null, "code": null, "fclass": null, "name": null, "ref": null, "oneway": null, "maxspeed": null, "layer": null, "bridge": null, "tunnel": null, "from_node": 15208, "to_node": 22696, "link_id": "grade_transition_connector__1430", "road_class": "topology_connector", "road_name": "grade_transition_connector", "speed_limit": null, "lane_num": null, "oneway_code": "T", "oneway_direction": "reverse", "length_m": 0.0, "signal": null, "source_link_id": "grade_transition_connector", "segment_index": 1430, "topology_layer": "transition", "topology_bridge": false, "topology_tunnel": false, "topology_version": "xian_2017_core_noded_v4", "topology_connector": true, "candidate_eligible": false, "connector_semantics": "('0', False, False)->('1', True, False)|trunk->trunk||('0', False, False)->('1', True, False)|trunk->trunk_link", "order_count": 35, "occurrence_count": 35 }, "geometry": { "type": "LineString", "coordinates": [ [ 108.966220300000018, 34.23394290000001 ], [ 108.966220300000018, 34.23394290000001 ] ] } },
{ "type": "Feature", "properties": { "osm_id": null, "code": null, "fclass": null, "name": null, "ref": null, "oneway": null, "maxspeed": null, "layer": null, "bridge": null, "tunnel": null, "from_node": 15215, "to_node": 21632, "link_id": "grade_transition_connector__1431", "road_class": "topology_connector", "road_name": "grade_transition_connector", "speed_limit": null, "lane_num": null, "oneway_code": "T", "oneway_direction": "reverse", "length_m": 0.0, "signal": null, "source_link_id": "grade_transition_connector", "segment_index": 1431, "topology_layer": "transition", "topology_bridge": false, "topology_tunnel": false, "topology_version": "xian_2017_core_noded_v4", "topology_connector": true, "candidate_eligible": false, "connector_semantics": "('1', False, False)->('0', False, False)|service->service", "order_count": 7, "occurrence_count": 7 }, "geometry": { "type": "LineString", "coordinates": [ [ 108.9689623, 34.2343004 ], [ 108.9689623, 34.2343004 ] ] } },
{ "type": "Feature", "properties": { "osm_id": null, "code": null, "fclass": null, "name": null, "ref": null, "oneway": null, "maxspeed": null, "layer": null, "bridge": null, "tunnel": null, "from_node": 15222, "to_node": 21636, "link_id": "grade_transition_connector__1433", "road_class": "topology_connector", "road_name": "grade_transition_connector", "speed_limit": null, "lane_num": null, "oneway_code": "T", "oneway_direction": "reverse", "length_m": 0.0, "signal": null, "source_link_id": "grade_transition_connector", "segment_index": 1433, "topology_layer": "transition", "topology_bridge": false, "topology_tunnel": false, "topology_version": "xian_2017_core_noded_v4", "topology_connector": true, "candidate_eligible": false, "connector_semantics": "('0', False, False)->('1', False, False)|service->service", "order_count": 18, "occurrence_count": 21 }, "geometry": { "type": "LineString", "coordinates": [ [ 108.9680434, 34.2350877 ], [ 108.9680434, 34.2350877 ] ] } },
{ "type": "Feature", "properties": { "osm_id": null, "code": null, "fclass": null, "name": null, "ref": null, "oneway": null, "maxspeed": null, "layer": null, "bridge": null, "tunnel": null, "from_node": 15227, "to_node": 21635, "link_id": "grade_transition_connector__1436", "road_class": "topology_connector", "road_name": "grade_transition_connector", "speed_limit": null, "lane_num": null, "oneway_code": "F", "oneway_direction": "forward", "length_m": 0.0, "signal": null, "source_link_id": "grade_transition_connector", "segment_index": 1436, "topology_layer": "transition", "topology_bridge": false, "topology_tunnel": false, "topology_version": "xian_2017_core_noded_v4", "topology_connector": true, "candidate_eligible": false, "connector_semantics": "('1', False, False)->('0', False, False)|service->service", "order_count": 18, "occurrence_count": 21 }, "geometry": { "type": "LineString", "coordinates": [ [ 108.9679457, 34.2352416 ], [ 108.9679457, 34.2352416 ] ] } },
{ "type": "Feature", "properties": { "osm_id": null, "code": null, "fclass": null, "name": null, "ref": null, "oneway": null, "maxspeed": null, "layer": null, "bridge": null, "tunnel": null, "from_node": 15236, "to_node": 22704, "link_id": "grade_transition_connector__1440", "road_class": "topology_connector", "road_name": "grade_transition_connector", "speed_limit": null, "lane_num": null, "oneway_code": "T", "oneway_direction": "reverse", "length_m": 0.0, "signal": null, "source_link_id": "grade_transition_connector", "segment_index": 1440, "topology_layer": "transition", "topology_bridge": false, "topology_tunnel": false, "topology_version": "xian_2017_core_noded_v4", "topology_connector": true, "candidate_eligible": false, "connector_semantics": "('1', True, False)->('0', False, False)|trunk->trunk||('1', True, False)->('0', False, False)|trunk_link->trunk", "order_count": 31, "occurrence_count": 49 }, "geometry": { "type": "LineString", "coordinates": [ [ 108.9708681, 34.2357829 ], [ 108.9708681, 34.2357829 ] ] } },
{ "type": "Feature", "properties": { "osm_id": null, "code": null, "fclass": null, "name": null, "ref": null, "oneway": null, "maxspeed": null, "layer": null, "bridge": null, "tunnel": null, "from_node": 15237, "to_node": 21641, "link_id": "grade_transition_connector__1441", "road_class": "topology_connector", "road_name": "grade_transition_connector", "speed_limit": null, "lane_num": null, "oneway_code": "F", "oneway_direction": "forward", "length_m": 0.0, "signal": null, "source_link_id": "grade_transition_connector", "segment_index": 1441, "topology_layer": "transition", "topology_bridge": false, "topology_tunnel": false, "topology_version": "xian_2017_core_noded_v4", "topology_connector": true, "candidate_eligible": false, "connector_semantics": "('0', False, False)->('1', False, False)|trunk->trunk", "order_count": 23, "occurrence_count": 23 }, "geometry": { "type": "LineString", "coordinates": [ [ 108.974173800000017, 34.2371779 ], [ 108.974173800000017, 34.2371779 ] ] } },
{ "type": "Feature", "properties": { "osm_id": null, "code": null, "fclass": null, "name": null, "ref": null, "oneway": null, "maxspeed": null, "layer": null, "bridge": null, "tunnel": null, "from_node": 15264, "to_node": 21642, "link_id": "grade_transition_connector__1442", "road_class": "topology_connector", "road_name": "grade_transition_connector", "speed_limit": null, "lane_num": null, "oneway_code": "T", "oneway_direction": "reverse", "length_m": 0.0, "signal": null, "source_link_id": "grade_transition_connector", "segment_index": 1442, "topology_layer": "transition", "topology_bridge": false, "topology_tunnel": false, "topology_version": "xian_2017_core_noded_v4", "topology_connector": true, "candidate_eligible": false, "connector_semantics": "('0', False, False)->('1', False, False)|trunk->trunk", "order_count": 23, "occurrence_count": 23 }, "geometry": { "type": "LineString", "coordinates": [ [ 108.9747888, 34.23744150000001 ], [ 108.9747888, 34.23744150000001 ] ] } },
{ "type": "Feature", "properties": { "osm_id": null, "code": null, "fclass": null, "name": null, "ref": null, "oneway": null, "maxspeed": null, "layer": null, "bridge": null, "tunnel": null, "from_node": 15266, "to_node": 23618, "link_id": "grade_transition_connector__1443", "road_class": "topology_connector", "road_name": "grade_transition_connector", "speed_limit": null, "lane_num": null, "oneway_code": "F", "oneway_direction": "forward", "length_m": 0.0, "signal": null, "source_link_id": "grade_transition_connector", "segment_index": 1443, "topology_layer": "transition", "topology_bridge": false, "topology_tunnel": false, "topology_version": "xian_2017_core_noded_v4", "topology_connector": true, "candidate_eligible": false, "connector_semantics": "('0', False, False)->('3', True, False)|trunk->trunk", "order_count": 21, "occurrence_count": 21 }, "geometry": { "type": "LineString", "coordinates": [ [ 108.9818021, 34.2403949 ], [ 108.9818021, 34.2403949 ] ] } },
{ "type": "Feature", "properties": { "osm_id": null, "code": null, "fclass": null, "name": null, "ref": null, "oneway": null, "maxspeed": null, "layer": null, "bridge": null, "tunnel": null, "from_node": 15277, "to_node": 22707, "link_id": "grade_transition_connector__1444", "road_class": "topology_connector", "road_name": "grade_transition_connector", "speed_limit": null, "lane_num": null, "oneway_code": "F", "oneway_direction": "forward", "length_m": 0.0, "signal": null, "source_link_id": "grade_transition_connector", "segment_index": 1444, "topology_layer": "transition", "topology_bridge": false, "topology_tunnel": false, "topology_version": "xian_2017_core_noded_v4", "topology_connector": true, "candidate_eligible": false, "connector_semantics": "('1', True, False)->('0', False, False)|trunk->trunk||('1', True, False)->('0', False, False)|trunk_link->trunk", "order_count": 43, "occurrence_count": 46 }, "geometry": { "type": "LineString", "coordinates": [ [ 108.970776, 34.2359208 ], [ 108.970776, 34.2359208 ] ] } },
{ "type": "Feature", "properties": { "osm_id": null, "code": null, "fclass": null, "name": null, "ref": null, "oneway": null, "maxspeed": null, "layer": null, "bridge": null, "tunnel": null, "from_node": 15283, "to_node": 22706, "link_id": "grade_transition_connector__1445", "road_class": "topology_connector", "road_name": "grade_transition_connector", "speed_limit": null, "lane_num": null, "oneway_code": "B", "oneway_direction": "both", "length_m": 0.0, "signal": null, "source_link_id": "grade_transition_connector", "segment_index": 1445, "topology_layer": "transition", "topology_bridge": false, "topology_tunnel": false, "topology_version": "xian_2017_core_noded_v4", "topology_connector": true, "candidate_eligible": false, "connector_semantics": "('1', True, False)->('0', False, False)|primary->primary", "order_count": 46, "occurrence_count": 58 }, "geometry": { "type": "LineString", "coordinates": [ [ 108.967761800000019, 34.236097 ], [ 108.967761800000019, 34.236097 ] ] } },
{ "type": "Feature", "properties": { "osm_id": null, "code": null, "fclass": null, "name": null, "ref": null, "oneway": null, "maxspeed": null, "layer": null, "bridge": null, "tunnel": null, "from_node": 15290, "to_node": 23621, "link_id": "grade_transition_connector__1446", "road_class": "topology_connector", "road_name": "grade_transition_connector", "speed_limit": null, "lane_num": null, "oneway_code": "T", "oneway_direction": "reverse", "length_m": 0.0, "signal": null, "source_link_id": "grade_transition_connector", "segment_index": 1446, "topology_layer": "transition", "topology_bridge": false, "topology_tunnel": false, "topology_version": "xian_2017_core_noded_v4", "topology_connector": true, "candidate_eligible": false, "connector_semantics": "('0', False, False)->('3', True, False)|trunk->trunk", "order_count": 11, "occurrence_count": 11 }, "geometry": { "type": "LineString", "coordinates": [ [ 108.9818938, 34.240574499999987 ], [ 108.9818938, 34.240574499999987 ] ] } },
{ "type": "Feature", "properties": { "osm_id": null, "code": null, "fclass": null, "name": null, "ref": null, "oneway": null, "maxspeed": null, "layer": null, "bridge": null, "tunnel": null, "from_node": 15347, "to_node": 23619, "link_id": "grade_transition_connector__1447", "road_class": "topology_connector", "road_name": "grade_transition_connector", "speed_limit": null, "lane_num": null, "oneway_code": "T", "oneway_direction": "reverse", "length_m": 0.0, "signal": null, "source_link_id": "grade_transition_connector", "segment_index": 1447, "topology_layer": "transition", "topology_bridge": false, "topology_tunnel": false, "topology_version": "xian_2017_core_noded_v4", "topology_connector": true, "candidate_eligible": false, "connector_semantics": "('3', True, False)->('0', False, False)|trunk->trunk", "order_count": 20, "occurrence_count": 20 }, "geometry": { "type": "LineString", "coordinates": [ [ 108.9866678, 34.2424556 ], [ 108.9866678, 34.2424556 ] ] } },
{ "type": "Feature", "properties": { "osm_id": null, "code": null, "fclass": null, "name": null, "ref": null, "oneway": null, "maxspeed": null, "layer": null, "bridge": null, "tunnel": null, "from_node": 15348, "to_node": 22712, "link_id": "grade_transition_connector__1448", "road_class": "topology_connector", "road_name": "grade_transition_connector", "speed_limit": null, "lane_num": null, "oneway_code": "F", "oneway_direction": "forward", "length_m": 0.0, "signal": null, "source_link_id": "grade_transition_connector", "segment_index": 1448, "topology_layer": "transition", "topology_bridge": false, "topology_tunnel": false, "topology_version": "xian_2017_core_noded_v4", "topology_connector": true, "candidate_eligible": false, "connector_semantics": "('0', False, False)->('1', True, False)|trunk->trunk", "order_count": 27, "occurrence_count": 27 }, "geometry": { "type": "LineString", "coordinates": [ [ 108.9882878, 34.2431171 ], [ 108.9882878, 34.2431171 ] ] } },
{ "type": "Feature", "properties": { "osm_id": null, "code": null, "fclass": null, "name": null, "ref": null, "oneway": null, "maxspeed": null, "layer": null, "bridge": null, "tunnel": null, "from_node": 15352, "to_node": 22715, "link_id": "grade_transition_connector__1449", "road_class": "topology_connector", "road_name": "grade_transition_connector", "speed_limit": null, "lane_num": null, "oneway_code": "T", "oneway_direction": "reverse", "length_m": 0.0, "signal": null, "source_link_id": "grade_transition_connector", "segment_index": 1449, "topology_layer": "transition", "topology_bridge": false, "topology_tunnel": false, "topology_version": "xian_2017_core_noded_v4", "topology_connector": true, "candidate_eligible": false, "connector_semantics": "('0', False, False)->('1', True, False)|trunk->trunk", "order_count": 10, "occurrence_count": 10 }, "geometry": { "type": "LineString", "coordinates": [ [ 108.9883777, 34.2432667 ], [ 108.9883777, 34.2432667 ] ] } },
{ "type": "Feature", "properties": { "osm_id": null, "code": null, "fclass": null, "name": null, "ref": null, "oneway": null, "maxspeed": null, "layer": null, "bridge": null, "tunnel": null, "from_node": 15353, "to_node": 23620, "link_id": "grade_transition_connector__1450", "road_class": "topology_connector", "road_name": "grade_transition_connector", "speed_limit": null, "lane_num": null, "oneway_code": "F", "oneway_direction": "forward", "length_m": 0.0, "signal": null, "source_link_id": "grade_transition_connector", "segment_index": 1450, "topology_layer": "transition", "topology_bridge": false, "topology_tunnel": false, "topology_version": "xian_2017_core_noded_v4", "topology_connector": true, "candidate_eligible": false, "connector_semantics": "('3', True, False)->('0', False, False)|trunk->trunk", "order_count": 11, "occurrence_count": 11 }, "geometry": { "type": "LineString", "coordinates": [ [ 108.9866339, 34.2425384 ], [ 108.9866339, 34.2425384 ] ] } },
{ "type": "Feature", "properties": { "osm_id": null, "code": null, "fclass": null, "name": null, "ref": null, "oneway": null, "maxspeed": null, "layer": null, "bridge": null, "tunnel": null, "from_node": 15413, "to_node": 23525, "link_id": "grade_transition_connector__1451", "road_class": "topology_connector", "road_name": "grade_transition_connector", "speed_limit": null, "lane_num": null, "oneway_code": "F", "oneway_direction": "forward", "length_m": 0.0, "signal": null, "source_link_id": "grade_transition_connector", "segment_index": 1451, "topology_layer": "transition", "topology_bridge": false, "topology_tunnel": false, "topology_version": "xian_2017_core_noded_v4", "topology_connector": true, "candidate_eligible": false, "connector_semantics": "('0', False, False)->('2', True, False)|trunk_link->trunk_link", "order_count": 5, "occurrence_count": 5 }, "geometry": { "type": "LineString", "coordinates": [ [ 108.9928459, 34.242876 ], [ 108.9928459, 34.242876 ] ] } },
{ "type": "Feature", "properties": { "osm_id": null, "code": null, "fclass": null, "name": null, "ref": null, "oneway": null, "maxspeed": null, "layer": null, "bridge": null, "tunnel": null, "from_node": 15992, "to_node": 22828, "link_id": "grade_transition_connector__1474", "road_class": "topology_connector", "road_name": "grade_transition_connector", "speed_limit": null, "lane_num": null, "oneway_code": "T", "oneway_direction": "reverse", "length_m": 0.0, "signal": null, "source_link_id": "grade_transition_connector", "segment_index": 1474, "topology_layer": "transition", "topology_bridge": false, "topology_tunnel": false, "topology_version": "xian_2017_core_noded_v4", "topology_connector": true, "candidate_eligible": false, "connector_semantics": "('0', False, False)->('1', True, False)|primary_link->primary_link", "order_count": 2, "occurrence_count": 2 }, "geometry": { "type": "LineString", "coordinates": [ [ 108.9675963, 34.2601763 ], [ 108.9675963, 34.2601763 ] ] } },
{ "type": "Feature", "properties": { "osm_id": null, "code": null, "fclass": null, "name": null, "ref": null, "oneway": null, "maxspeed": null, "layer": null, "bridge": null, "tunnel": null, "from_node": 16150, "to_node": 22713, "link_id": "grade_transition_connector__1497", "road_class": "topology_connector", "road_name": "grade_transition_connector", "speed_limit": null, "lane_num": null, "oneway_code": "T", "oneway_direction": "reverse", "length_m": 0.0, "signal": null, "source_link_id": "grade_transition_connector", "segment_index": 1497, "topology_layer": "transition", "topology_bridge": false, "topology_tunnel": false, "topology_version": "xian_2017_core_noded_v4", "topology_connector": true, "candidate_eligible": false, "connector_semantics": "('1', True, False)->('0', False, False)|trunk->trunk", "order_count": 25, "occurrence_count": 25 }, "geometry": { "type": "LineString", "coordinates": [ [ 108.9919584, 34.2478009 ], [ 108.9919584, 34.2478009 ] ] } },
{ "type": "Feature", "properties": { "osm_id": null, "code": null, "fclass": null, "name": null, "ref": null, "oneway": null, "maxspeed": null, "layer": null, "bridge": null, "tunnel": null, "from_node": 16155, "to_node": 22714, "link_id": "grade_transition_connector__1498", "road_class": "topology_connector", "road_name": "grade_transition_connector", "speed_limit": null, "lane_num": null, "oneway_code": "F", "oneway_direction": "forward", "length_m": 0.0, "signal": null, "source_link_id": "grade_transition_connector", "segment_index": 1498, "topology_layer": "transition", "topology_bridge": false, "topology_tunnel": false, "topology_version": "xian_2017_core_noded_v4", "topology_connector": true, "candidate_eligible": false, "connector_semantics": "('1', True, False)->('0', False, False)|trunk->trunk", "order_count": 14, "occurrence_count": 14 }, "geometry": { "type": "LineString", "coordinates": [ [ 108.9917968, 34.2477342 ], [ 108.9917968, 34.2477342 ] ] } },
{ "type": "Feature", "properties": { "osm_id": null, "code": null, "fclass": null, "name": null, "ref": null, "oneway": null, "maxspeed": null, "layer": null, "bridge": null, "tunnel": null, "from_node": 16175, "to_node": 21650, "link_id": "grade_transition_connector__1501", "road_class": "topology_connector", "road_name": "grade_transition_connector", "speed_limit": null, "lane_num": null, "oneway_code": "F", "oneway_direction": "forward", "length_m": 0.0, "signal": null, "source_link_id": "grade_transition_connector", "segment_index": 1501, "topology_layer": "transition", "topology_bridge": false, "topology_tunnel": false, "topology_version": "xian_2017_core_noded_v4", "topology_connector": true, "candidate_eligible": false, "connector_semantics": "('1', False, False)->('0', False, False)|trunk_link->trunk_link", "order_count": 22, "occurrence_count": 22 }, "geometry": { "type": "LineString", "coordinates": [ [ 108.992084500000018, 34.2524802 ], [ 108.992084500000018, 34.2524802 ] ] } },
{ "type": "Feature", "properties": { "osm_id": null, "code": null, "fclass": null, "name": null, "ref": null, "oneway": null, "maxspeed": null, "layer": null, "bridge": null, "tunnel": null, "from_node": 16199, "to_node": 21651, "link_id": "grade_transition_connector__1502", "road_class": "topology_connector", "road_name": "grade_transition_connector", "speed_limit": null, "lane_num": null, "oneway_code": "T", "oneway_direction": "reverse", "length_m": 0.0, "signal": null, "source_link_id": "grade_transition_connector", "segment_index": 1502, "topology_layer": "transition", "topology_bridge": false, "topology_tunnel": false, "topology_version": "xian_2017_core_noded_v4", "topology_connector": true, "candidate_eligible": false, "connector_semantics": "('1', False, False)->('0', False, False)|trunk->trunk||('1', False, False)->('0', False, False)|trunk_link->trunk", "order_count": 39, "occurrence_count": 39 }, "geometry": { "type": "LineString", "coordinates": [ [ 108.9920079, 34.2561503 ], [ 108.9920079, 34.2561503 ] ] } },
{ "type": "Feature", "properties": { "osm_id": null, "code": null, "fclass": null, "name": null, "ref": null, "oneway": null, "maxspeed": null, "layer": null, "bridge": null, "tunnel": null, "from_node": 21860, "to_node": 23385, "link_id": "grade_transition_connector__2167", "road_class": "topology_connector", "road_name": "grade_transition_connector", "speed_limit": null, "lane_num": null, "oneway_code": "F", "oneway_direction": "forward", "length_m": 0.0, "signal": null, "source_link_id": "grade_transition_connector", "segment_index": 2167, "topology_layer": "transition", "topology_bridge": false, "topology_tunnel": false, "topology_version": "xian_2017_core_noded_v4", "topology_connector": true, "candidate_eligible": false, "connector_semantics": "('1', True, False)->('2', True, False)|trunk->trunk", "order_count": 73, "occurrence_count": 86 }, "geometry": { "type": "LineString", "coordinates": [ [ 108.9194139, 34.2347678 ], [ 108.9194139, 34.2347678 ] ] } },
{ "type": "Feature", "properties": { "osm_id": null, "code": null, "fclass": null, "name": null, "ref": null, "oneway": null, "maxspeed": null, "layer": null, "bridge": null, "tunnel": null, "from_node": 21883, "to_node": 23386, "link_id": "grade_transition_connector__2169", "road_class": "topology_connector", "road_name": "grade_transition_connector", "speed_limit": null, "lane_num": null, "oneway_code": "T", "oneway_direction": "reverse", "length_m": 0.0, "signal": null, "source_link_id": "grade_transition_connector", "segment_index": 2169, "topology_layer": "transition", "topology_bridge": false, "topology_tunnel": false, "topology_version": "xian_2017_core_noded_v4", "topology_connector": true, "candidate_eligible": false, "connector_semantics": "('2', True, False)->('1', True, False)|trunk->trunk", "order_count": 73, "occurrence_count": 86 }, "geometry": { "type": "LineString", "coordinates": [ [ 108.9175192, 34.2356084 ], [ 108.9175192, 34.2356084 ] ] } },
{ "type": "Feature", "properties": { "osm_id": null, "code": null, "fclass": null, "name": null, "ref": null, "oneway": null, "maxspeed": null, "layer": null, "bridge": null, "tunnel": null, "from_node": 22695, "to_node": 23524, "link_id": "grade_transition_connector__2212", "road_class": "topology_connector", "road_name": "grade_transition_connector", "speed_limit": null, "lane_num": null, "oneway_code": "T", "oneway_direction": "reverse", "length_m": 0.0, "signal": null, "source_link_id": "grade_transition_connector", "segment_index": 2212, "topology_layer": "transition", "topology_bridge": false, "topology_tunnel": false, "topology_version": "xian_2017_core_noded_v4", "topology_connector": true, "candidate_eligible": false, "connector_semantics": "('1', True, False)->('2', True, False)|trunk->trunk||('2', True, False)->('1', True, False)|trunk->trunk_link", "order_count": 43, "occurrence_count": 46 }, "geometry": { "type": "LineString", "coordinates": [ [ 108.9670037, 34.2342668 ], [ 108.9670037, 34.2342668 ] ] } },
{ "type": "Feature", "properties": { "osm_id": null, "code": null, "fclass": null, "name": null, "ref": null, "oneway": null, "maxspeed": null, "layer": null, "bridge": null, "tunnel": null, "from_node": 22705, "to_node": 23523, "link_id": "grade_transition_connector__2214", "road_class": "topology_connector", "road_name": "grade_transition_connector", "speed_limit": null, "lane_num": null, "oneway_code": "F", "oneway_direction": "forward", "length_m": 0.0, "signal": null, "source_link_id": "grade_transition_connector", "segment_index": 2214, "topology_layer": "transition", "topology_bridge": false, "topology_tunnel": false, "topology_version": "xian_2017_core_noded_v4", "topology_connector": true, "candidate_eligible": false, "connector_semantics": "('2', True, False)->('1', True, False)|trunk->trunk||('2', True, False)->('1', True, False)|trunk->trunk_link", "order_count": 43, "occurrence_count": 46 }, "geometry": { "type": "LineString", "coordinates": [ [ 108.9698083, 34.2355168 ], [ 108.9698083, 34.2355168 ] ] } }
]
}
